LINGQIAO VIDEO A        
1 40959U 15057B   26131.24587978  .00000668  00000+0  10065-3 0  9992
2 40959  97.6625 127.8741 0017775  33.9547 326.2798 14.77341642569952
LINGQIAO VIDEO B        
1 40960U 15057C   26131.22519740  .00000996  00000+0  14624-3 0  9993
2 40960  97.6592 129.0276 0017926  34.1468 326.0893 14.77446300569992
JILIN-1                 
1 40961U 15057D   26131.18742563  .00000503  00000+0  76172-4 0  9991
2 40961  97.6512 132.3938 0017717  28.9185 331.3004 14.78097588570145
FOX-1A (AO-85)          
1 40967U 15058D   26131.12332539  .00002179  00000+0  20423-3 0  9998
2 40967  64.7766  34.1460 0128911  71.1275 290.3763 14.90748371108044
SINOD-D 1               
1 40968U 15058E   26131.10472419  .00003030  00000+0  25114-3 0  9998
2 40968  64.7770  15.0135 0117393  67.9327 293.4204 14.95612391111113
ELEKTRO-L 2             
1 41105U 15074A   26131.17892606 -.00000103  00000+0  00000+0 0  9993
2 41105   6.6016  70.9674 0001607 276.0919 291.8147  1.00273193 38136
DAMPE                   
1 41173U 15078A   26131.16883372  .00000847  00000+0  31128-4 0  9995
2 41173  97.4573 136.4566 0011116 199.9858 160.0948 15.30691248578886
ORBCOMM FM114           
1 41179U 15081A   26131.13199216  .00000173  00000+0  72974-4 0  9995
2 41179  47.0033 177.1910 0001848   0.3991 359.6896 14.58816316552348
ORBCOMM FM110           
1 41182U 15081D   26131.12071355  .00000252  00000+0  89758-4 0  9997
2 41182  47.0003 176.6954 0004042 264.8375  95.2050 14.58820399552210
ORBCOMM FM112           
1 41184U 15081F   26131.15991125  .00000485  00000+0  13917-3 0  9999
2 41184  46.9981  85.3255 0002437  23.8419 336.2579 14.58754633553541
ORBCOMM FM113           
1 41185U 15081G   26131.20435348  .00000235  00000+0  85967-4 0  9994
2 41185  47.0003  85.4784 0001463   4.2645 355.8253 14.58816397553530
ORBCOMM FM108           
1 41187U 15081J   26131.02996019  .00000439  00000+0  12930-3 0  9998
2 41187  47.0064 357.8678 0002388  17.8735 342.2234 14.58817483554654
ORBCOMM FM117           
1 41188U 15081K   26130.99540388  .00000411  00000+0  12326-3 0  9997
2 41188  47.0028 356.6764 0002797  25.8479 334.2546 14.58815303554696
ORBCOMM FM116           
1 41189U 15081L   26130.90763971  .00000197  00000+0  77869-4 0  9999
2 41189  47.0019  86.8785 0002451 268.9552  91.1053 14.58824120553497
HORYU-4                 
1 41340U 16012D   26130.90637118  .00131902  00000+0  74753-3 0  9993
2 41340  30.9896 348.4205 0005704   6.7696 353.3037 15.77528373564899
ZIYUAN 3-02 (ZY 3-02)   
1 41556U 16033A   26131.22550745  .00003678  00000+0  16646-3 0  9996
2 41556  97.3839 207.7060 0013875  68.2471 292.0240 15.21437001552360
CARTOSAT-2C             
1 41599U 16040A   26131.17667600  .00003466  00000+0  16786-3 0  9994
2 41599  97.4504 191.6572 0008387 262.0988  97.9294 15.19194106548094
LAPAN-A3                
1 41603U 16040E   26131.24557346  .00002464  00000+0  79828-4 0  9997
2 41603  97.1491 128.6139 0011542 140.0792 220.1302 15.32870423549152
CAS-2T & KS-1Q          
1 41847U 16066G   26131.18412439  .00000509  00000+0  81632-4 0  9995
2 41847  98.3824 207.3390 0341016 241.7460 114.8921 14.44588827499451
YUNHAI-1 01             
1 41857U 16068A   26131.15216225  .00000234  00000+0  10212-3 0  9990
2 41857  98.5853 142.5026 0006137 133.6357 226.5336 14.32712573496528
RESOURCESAT-2A          
1 41877U 16074A   26131.19039671  .00000025  00000+0  31596-4 0  9998
2 41877  98.7526 204.9948 0002401 156.8843 203.2443 14.21604436489048
TANSAT                  
1 41898U 16081A   26131.23884993  .00000438  00000+0  10168-3 0  9998
2 41898  98.5374 130.4068 0021812  64.6023 295.7430 14.59919370499230
JILIN-1 03              
1 41914U 17002B   26131.20976833  .00008440  00000+0  20883-3 0  9999
2 41914  97.1965 138.8410 0004051 321.9546  38.1414 15.40681693516166
