OBJECT_NAME,OBJECT_ID,EPOCH,MEAN_MOTION,ECCENTRICITY,INCLINATION,RA_OF_ASC_NODE,ARG_OF_PERICENTER,MEAN_ANOMALY,EPHEMERIS_TYPE,CLASSIFICATION_TYPE,NORAD_CAT_ID,ELEMENT_SET_NO,REV_AT_EPOCH,BSTAR,MEAN_MOTION_DOT,MEAN_MOTION_DDOT
LINGQIAO VIDEO A,2015-057B,2026-05-11T05:54:04.012992,14.77341642,.0017775,97.6625,127.8741,33.9547,326.2798,0,U,40959,999,56995,.10065E-3,.668E-5,0
LINGQIAO VIDEO B,2015-057C,2026-05-11T05:24:17.055360,14.77446300,.0017926,97.6592,129.0276,34.1468,326.0893,0,U,40960,999,56999,.14624E-3,.996E-5,0
JILIN-1,2015-057D,2026-05-11T04:29:53.574432,14.78097588,.0017717,97.6512,132.3938,28.9185,331.3004,0,U,40961,999,57014,.76172E-4,.503E-5,0
FOX-1A (AO-85),2015-058D,2026-05-11T02:57:35.312832,14.90748371,.0128912,64.7766,34.1460,71.1275,290.3763,0,U,40967,999,10804,.20423E-3,.2179E-4,0
SINOD-D 1,2015-058E,2026-05-11T02:30:48.170016,14.95612391,.0117393,64.7770,15.0135,67.9327,293.4204,0,U,40968,999,11111,.25114E-3,.303E-4,0
ELEKTRO-L 2,2015-074A,2026-05-11T04:17:39.211584,1.00273193,.0001607,6.6016,70.9674,276.0919,291.8147,0,U,41105,999,3813,0,-.103E-5,0
DAMPE,2015-078A,2026-05-11T04:03:07.233408,15.30691248,.0011116,97.4573,136.4566,199.9858,160.0948,0,U,41173,999,57888,.31128E-4,.847E-5,0
ORBCOMM FM114,2015-081A,2026-05-11T03:10:04.122624,14.58816316,.0001848,47.0033,177.1910,0.3991,359.6896,0,U,41179,999,55234,.72974E-4,.173E-5,0
ORBCOMM FM110,2015-081D,2026-05-11T02:53:49.650720,14.58820399,.0004042,47.0003,176.6954,264.8375,95.2050,0,U,41182,999,55221,.89758E-4,.252E-5,0
ORBCOMM FM112,2015-081F,2026-05-11T03:50:16.332000,14.58754633,.0002437,46.9981,85.3255,23.8419,336.2579,0,U,41184,999,55354,.13917E-3,.485E-5,0
ORBCOMM FM113,2015-081G,2026-05-11T04:54:16.140672,14.58816397,.0001463,47.0003,85.4784,4.2645,355.8253,0,U,41185,999,55353,.85967E-4,.235E-5,0
ORBCOMM FM108,2015-081J,2026-05-11T00:43:08.560416,14.58817483,.0002388,47.0064,357.8678,17.8735,342.2234,0,U,41187,999,55465,.1293E-3,.439E-5,0
ORBCOMM FM117,2015-081K,2026-05-10T23:53:22.895232,14.58815303,.0002797,47.0028,356.6764,25.8479,334.2546,0,U,41188,999,55469,.12326E-3,.411E-5,0
ORBCOMM FM116,2015-081L,2026-05-10T21:47:00.070080,14.58824120,.0002451,47.0019,86.8785,268.9552,91.1053,0,U,41189,999,55349,.77869E-4,.197E-5,0
HORYU-4,2016-012D,2026-05-10T21:45:10.469088,15.77528373,.0005704,30.9896,348.4205,6.7696,353.3037,0,U,41340,999,56489,.74753E-3,.131902E-2,0
ZIYUAN 3-02 (ZY 3-02),2016-033A,2026-05-11T05:24:43.843680,15.21437001,.0013875,97.3839,207.7060,68.2471,292.0240,0,U,41556,999,55236,.16646E-3,.3678E-4,0
CARTOSAT-2C,2016-040A,2026-05-11T04:14:24.806400,15.19194106,.0008387,97.4504,191.6572,262.0988,97.9294,0,U,41599,999,54809,.16786E-3,.3466E-4,0
LAPAN-A3,2016-040E,2026-05-11T05:53:37.546944,15.32870423,.0011542,97.1491,128.6139,140.0792,220.1302,0,U,41603,999,54915,.79828E-4,.2464E-4,0
CAS-2T & KS-1Q,2016-066G,2026-05-11T04:25:08.347296,14.44588827,.0341016,98.3824,207.3390,241.7460,114.8921,0,U,41847,999,49945,.81632E-4,.509E-5,0
YUNHAI-1 01,2016-068A,2026-05-11T03:39:06.818400,14.32712573,.0006137,98.5853,142.5026,133.6357,226.5336,0,U,41857,999,49652,.10212E-3,.234E-5,0
RESOURCESAT-2A,2016-074A,2026-05-11T04:34:10.275744,14.21604436,.0002401,98.7526,204.9948,156.8843,203.2443,0,U,41877,999,48904,.31596E-4,.25E-6,0
TANSAT,2016-081A,2026-05-11T05:43:56.633952,14.59919370,.0021812,98.5374,130.4068,64.6023,295.7430,0,U,41898,999,49923,.10168E-3,.438E-5,0
JILIN-1 03,2017-002B,2026-05-11T05:02:03.983712,15.40681693,.0004051,97.1965,138.8410,321.9546,38.1414,0,U,41914,999,51616,.20883E-3,.844E-4,0
